[{"OBJECT_NAME":"GEOSCAN 4 (RS92S4)","OBJECT_ID":"2025-155S","EPOCH":"2026-03-09T21:50:07.724832","MEAN_MOTION":15.30369837,"ECCENTRICITY":0.00070968,"INCLINATION":97.4465,"RA_OF_ASC_NODE":37.7626,"ARG_OF_PERICENTER":154.7045,"MEAN_ANOMALY":205.4544,"EPHEMERIS_TYPE":0,"CLASSIFICATION_TYPE":"U","NORAD_CAT_ID":64892,"ELEMENT_SET_NO":999,"REV_AT_EPOCH":6562,"BSTAR":0.00068609503,"MEAN_MOTION_DOT":0.00020121,"MEAN_MOTION_DDOT":0},{"OBJECT_NAME":"STARLINK-35619","OBJECT_ID":"2025-245Y","EPOCH":"2026-03-09T21:36:38.383200","MEAN_MOTION":15.30196026,"ECCENTRICITY":0.00010516,"INCLINATION":53.1568,"RA_OF_ASC_NODE":282.5662,"ARG_OF_PERICENTER":88.295,"MEAN_ANOMALY":271.8171,"EPHEMERIS_TYPE":0,"CLASSIFICATION_TYPE":"U","NORAD_CAT_ID":66256,"ELEMENT_SET_NO":999,"REV_AT_EPOCH":2129,"BSTAR":0.00064158049,"MEAN_MOTION_DOT":0.00018688,"MEAN_MOTION_DDOT":0}]
